*******************************************************************************
 Revised: Jun 17, 2016           Ganymede / (Jupiter)                       503

 SATELLITE PHYSICAL PROPERTIES:
  Radius (km)             = 2634   +- 10     Density (g cm^-3)  =  1.94 +- 0.02
  Mass (10^20 kg )        = 1482   +- 1      Geometric Albedo   =  0.4

 SATELLITE ORBITAL DATA:
  Semi-major axis, a (km) = 1070.0428 (10^3) Orbital period     = 7.154553 d
  Eccentricity, e         = 0.0006           Rotational period  = Synchronous
  Inclination, i  (deg)   = 0.186
*******************************************************************************
 

 

*******************************************************************************
Ephemeris / WWW_USER Fri Dec 27 22:40:47 2019 Pasadena, USA      / Horizons    
*******************************************************************************
Target body name: Ganymede (503)                  {source: jup310}
Center body name: Jupiter (599)                   {source: jup310}
Center-site name: BODY CENTER
*******************************************************************************
Start time      : A.D. 2020-Jan-01 00:00:00.0000 TDB
Stop  time      : A.D. 2020-Jan-01 00:01:00.0000 TDB
Step-size       : 60 minutes
*******************************************************************************
Center geodetic : 0.00000000,0.00000000,0.0000000 {W-lon(deg),Lat(deg),Alt(km)}
Center cylindric: 0.00000000,0.00000000,0.0000000 {W-lon(deg),Dxy(km),Dz(km)}
Center radii    : 71492.0 x 71492.0 x 66854.0 km  {Equator, meridian, pole}    
Keplerian GM    : 1.2669642273157087E+08 km^3/s^2
Output units    : KM-S, deg                                                    
Output type     : GEOMETRIC osculating elements
Output format   : 10
Reference frame : ICRF/J2000.0                                                 
Coordinate systm: Ecliptic and Mean Equinox of Reference Epoch                 
*******************************************************************************
            JDTDB,            Calendar Date (TDB),                     EC,                     QR,                     IN,                     OM,                      W,                     Tp,                      N,                     MA,                     TA,                      A,                     AD,                     PR,
**************************************************************************************************************************************************************************************************************************************************************************************************************************************************
$$SOE
2458849.500000000, A.D. 2020-Jan-01 00:00:00.0000,  1.953326482402826E-03,  1.068496299960924E+06,  2.306479229210245E+00,  3.403571923433072E+02,  4.052026367095923E+00,  2.394327649516635E+05,  5.821991299837212E-04,  2.206024525555447E+02,  2.204570491386808E+02,  1.070587506889862E+06,  1.072678713818800E+06,  6.183451356412469E+05,
$$EOE
**************************************************************************************************************************************************************************************************************************************************************************************************************************************************
Coordinate system description:

  Ecliptic and Mean Equinox of Reference Epoch

    Reference epoch: J2000.0
    XY-plane: plane of the Earth's orbit at the reference epoch
              Note: obliquity of 84381.448 arcseconds wrt ICRF equator (IAU76)
    X-axis  : out along ascending node of instantaneous plane of the Earth's
              orbit and the Earth's mean equator at the reference epoch
    Z-axis  : perpendicular to the xy-plane in the directional (+ or -) sense
              of Earth's north pole at the reference epoch.

  Symbol meaning:

    JDTDB    Julian Day Number, Barycentric Dynamical Time
      EC     Eccentricity, e                                                   
      QR     Periapsis distance, q (km)                                        
      IN     Inclination w.r.t XY-plane, i (degrees)                           
      OM     Longitude of Ascending Node, OMEGA, (degrees)                     
      W      Argument of Perifocus, w (degrees)                                
      Tp     Time of periapsis relative to epoch (P-E) (sec)                   
      N      Mean motion, n (degrees/sec)                                      
      MA     Mean anomaly, M (degrees)                                         
      TA     True anomaly, nu (degrees)                                        
      A      Semi-major axis, a (km)                                           
      AD     Apoapsis distance (km)                                            
      PR     Sidereal orbit period (sec)                                       

Geometric states/elements have no aberrations applied.

 Computations by ...
     Solar System Dynamics Group, Horizons On-Line Ephemeris System
     4800 Oak Grove Drive, Jet Propulsion Laboratory
     Pasadena, CA  91109   USA
     Information: http://ssd.jpl.nasa.gov/
     Connect    : telnet://ssd.jpl.nasa.gov:6775  (via browser)
                  http://ssd.jpl.nasa.gov/?horizons
                  telnet ssd.jpl.nasa.gov 6775    (via command-line)
     Author     : Jon.D.Giorgini@jpl.nasa.gov
*******************************************************************************
